CCSDS_OMM_VERS = 2.0
CREATION_DATE  = 
ORIGINATOR     = 

OBJECT_NAME    = UNKNOWN
OBJECT_ID      = 
CENTER_NAME    = EARTH
REF_FRAME      = TEME
TIME_SYSTEM    = UTC
MEAN_ELEMENT_THEORY = SGP/SGP4

EPOCH          = 2026-03-14T09:43:12.935712
MEAN_MOTION    = 14.11296046
ECCENTRICITY   = .02714218
INCLINATION    = 97.6772
RA_OF_ASC_NODE = 300.3260
ARG_OF_PERICENTER = 105.5412
MEAN_ANOMALY   = 257.5902

EPHEMERIS_TYPE = 0
CLASSIFICATION_TYPE = U
NORAD_CAT_ID   = 270315
ELEMENT_SET_NO = 999
REV_AT_EPOCH   = 29685
BSTAR          = .14505819E-2
MEAN_MOTION_DOT = .3672E-4
MEAN_MOTION_DDOT = 0

CCSDS_OMM_VERS = 2.0
CREATION_DATE  = 
ORIGINATOR     = 

OBJECT_NAME    = UNKNOWN
OBJECT_ID      = 
CENTER_NAME    = EARTH
REF_FRAME      = TEME
TIME_SYSTEM    = UTC
MEAN_ELEMENT_THEORY = SGP/SGP4

EPOCH          = 2026-03-30T06:19:20.175744
MEAN_MOTION    = 14.21425341
ECCENTRICITY   = .00080052
INCLINATION    = 81.2057
RA_OF_ASC_NODE = 289.9096
ARG_OF_PERICENTER = 336.7350
MEAN_ANOMALY   = 23.3463

EPHEMERIS_TYPE = 0
CLASSIFICATION_TYPE = U
NORAD_CAT_ID   = 270316
ELEMENT_SET_NO = 999
REV_AT_EPOCH   = 27937
BSTAR          = .24508249E-2
MEAN_MOTION_DOT = .5369E-4
MEAN_MOTION_DDOT = 0

CCSDS_OMM_VERS = 2.0
CREATION_DATE  = 
ORIGINATOR     = 

OBJECT_NAME    = UNKNOWN
OBJECT_ID      = 
CENTER_NAME    = EARTH
REF_FRAME      = TEME
TIME_SYSTEM    = UTC
MEAN_ELEMENT_THEORY = SGP/SGP4

EPOCH          = 2026-03-30T17:30:58.973472
MEAN_MOTION    = 12.93362917
ECCENTRICITY   = .00240562
INCLINATION    = 90.2542
RA_OF_ASC_NODE = 5.6205
ARG_OF_PERICENTER = 105.7067
MEAN_ANOMALY   = 254.6708

EPHEMERIS_TYPE = 0
CLASSIFICATION_TYPE = U
NORAD_CAT_ID   = 270317
ELEMENT_SET_NO = 999
REV_AT_EPOCH   = 8465
BSTAR          = .57381711E-3
MEAN_MOTION_DOT = .165E-5
MEAN_MOTION_DDOT = 0

CCSDS_OMM_VERS = 2.0
CREATION_DATE  = 
ORIGINATOR     = 

OBJECT_NAME    = UNKNOWN
OBJECT_ID      = 
CENTER_NAME    = EARTH
REF_FRAME      = TEME
TIME_SYSTEM    = UTC
MEAN_ELEMENT_THEORY = SGP/SGP4

EPOCH          = 2026-04-02T03:57:02.978784
MEAN_MOTION    = 12.53708964
ECCENTRICITY   = .04934254
INCLINATION    = 103.0063
RA_OF_ASC_NODE = 251.2798
ARG_OF_PERICENTER = 125.4575
MEAN_ANOMALY   = 239.3588

EPHEMERIS_TYPE = 0
CLASSIFICATION_TYPE = U
NORAD_CAT_ID   = 270319
ELEMENT_SET_NO = 999
REV_AT_EPOCH   = 7616
BSTAR          = .23016692E-1
MEAN_MOTION_DOT = .5724E-4
MEAN_MOTION_DDOT = 0

CCSDS_OMM_VERS = 2.0
CREATION_DATE  = 
ORIGINATOR     = 

OBJECT_NAME    = UNKNOWN
OBJECT_ID      = 
CENTER_NAME    = EARTH
REF_FRAME      = TEME
TIME_SYSTEM    = UTC
MEAN_ELEMENT_THEORY = SGP/SGP4

EPOCH          = 2026-04-02T00:00:14.146272
MEAN_MOTION    = 12.99537365
ECCENTRICITY   = .00255238
INCLINATION    = 90.2462
RA_OF_ASC_NODE = 3.6071
ARG_OF_PERICENTER = 161.1282
MEAN_ANOMALY   = 199.0791

EPHEMERIS_TYPE = 0
CLASSIFICATION_TYPE = U
NORAD_CAT_ID   = 270320
ELEMENT_SET_NO = 999
REV_AT_EPOCH   = 23473
BSTAR          = -.6459548E-3
MEAN_MOTION_DOT = -.186E-5
MEAN_MOTION_DDOT = 0

CCSDS_OMM_VERS = 2.0
CREATION_DATE  = 
ORIGINATOR     = 

OBJECT_NAME    = UNKNOWN
OBJECT_ID      = 
CENTER_NAME    = EARTH
REF_FRAME      = TEME
TIME_SYSTEM    = UTC
MEAN_ELEMENT_THEORY = SGP/SGP4

EPOCH          = 2026-04-03T00:11:33.772992
MEAN_MOTION    = 12.92688761
ECCENTRICITY   = .00312134
INCLINATION    = 90.2524
RA_OF_ASC_NODE = 5.1110
ARG_OF_PERICENTER = 118.3084
MEAN_ANOMALY   = 242.1189

EPHEMERIS_TYPE = 0
CLASSIFICATION_TYPE = U
NORAD_CAT_ID   = 270321
ELEMENT_SET_NO = 999
REV_AT_EPOCH   = 25633
BSTAR          = .45359729E-3
MEAN_MOTION_DOT = .131E-5
MEAN_MOTION_DDOT = 0

CCSDS_OMM_VERS = 2.0
CREATION_DATE  = 
ORIGINATOR     = 

OBJECT_NAME    = UNKNOWN
OBJECT_ID      = 
CENTER_NAME    = EARTH
REF_FRAME      = TEME
TIME_SYSTEM    = UTC
MEAN_ELEMENT_THEORY = SGP/SGP4

EPOCH          = 2026-04-02T11:29:49.808544
MEAN_MOTION    = 12.93166028
ECCENTRICITY   = .00319168
INCLINATION    = 90.2483
RA_OF_ASC_NODE = 4.8148
ARG_OF_PERICENTER = 113.2460
MEAN_ANOMALY   = 247.2024

EPHEMERIS_TYPE = 0
CLASSIFICATION_TYPE = U
NORAD_CAT_ID   = 270322
ELEMENT_SET_NO = 999
REV_AT_EPOCH   = 23232
BSTAR          = .60347947E-3
MEAN_MOTION_DOT = .173E-5
MEAN_MOTION_DDOT = 0

CCSDS_OMM_VERS = 2.0
CREATION_DATE  = 
ORIGINATOR     = 

OBJECT_NAME    = UNKNOWN
OBJECT_ID      = 
CENTER_NAME    = EARTH
REF_FRAME      = TEME
TIME_SYSTEM    = UTC
MEAN_ELEMENT_THEORY = SGP/SGP4

EPOCH          = 2026-03-31T23:47:39.947712
MEAN_MOTION    = 14.46075845
ECCENTRICITY   = .00401059
INCLINATION    = 81.2861
RA_OF_ASC_NODE = 355.3542
ARG_OF_PERICENTER = 104.4613
MEAN_ANOMALY   = 256.1034

EPHEMERIS_TYPE = 0
CLASSIFICATION_TYPE = U
NORAD_CAT_ID   = 270323
ELEMENT_SET_NO = 999
REV_AT_EPOCH   = 29314
BSTAR          = .20400992E-2
MEAN_MOTION_DOT = .7367E-4
MEAN_MOTION_DDOT = 0

CCSDS_OMM_VERS = 2.0
CREATION_DATE  = 
ORIGINATOR     = 

OBJECT_NAME    = UNKNOWN
OBJECT_ID      = 
CENTER_NAME    = EARTH
REF_FRAME      = TEME
TIME_SYSTEM    = UTC
MEAN_ELEMENT_THEORY = SGP/SGP4

EPOCH          = 2026-03-29T14:35:41.472960
MEAN_MOTION    = 12.32547212
ECCENTRICITY   = .06710477
INCLINATION    = 66.0287
RA_OF_ASC_NODE = 47.3325
ARG_OF_PERICENTER = 234.1789
MEAN_ANOMALY   = 119.5063

EPHEMERIS_TYPE = 0
CLASSIFICATION_TYPE = U
NORAD_CAT_ID   = 270324
ELEMENT_SET_NO = 999
REV_AT_EPOCH   = 26135
BSTAR          = -.13623199E-3
MEAN_MOTION_DOT = -.9E-6
MEAN_MOTION_DDOT = 0

CCSDS_OMM_VERS = 2.0
CREATION_DATE  = 
ORIGINATOR     = 

OBJECT_NAME    = UNKNOWN
OBJECT_ID      = 
CENTER_NAME    = EARTH
REF_FRAME      = TEME
TIME_SYSTEM    = UTC
MEAN_ELEMENT_THEORY = SGP/SGP4

EPOCH          = 2026-04-01T10:52:11.966592
MEAN_MOTION    = 12.97008581
ECCENTRICITY   = .00307901
INCLINATION    = 90.2374
RA_OF_ASC_NODE = 355.1524
ARG_OF_PERICENTER = 257.9439
MEAN_ANOMALY   = 101.8231

EPHEMERIS_TYPE = 0
CLASSIFICATION_TYPE = U
NORAD_CAT_ID   = 270325
ELEMENT_SET_NO = 999
REV_AT_EPOCH   = 25543
BSTAR          = -.78399251E-3
MEAN_MOTION_DOT = -.219E-5
MEAN_MOTION_DDOT = 0

CCSDS_OMM_VERS = 2.0
CREATION_DATE  = 
ORIGINATOR     = 

OBJECT_NAME    = UNKNOWN
OBJECT_ID      = 
CENTER_NAME    = EARTH
REF_FRAME      = TEME
TIME_SYSTEM    = UTC
MEAN_ELEMENT_THEORY = SGP/SGP4

EPOCH          = 2026-04-03T00:15:16.978752
MEAN_MOTION    = 13.01663410
ECCENTRICITY   = .00292275
INCLINATION    = 90.2438
RA_OF_ASC_NODE = 2.3145
ARG_OF_PERICENTER = 199.7502
MEAN_ANOMALY   = 160.2492

EPHEMERIS_TYPE = 0
CLASSIFICATION_TYPE = U
NORAD_CAT_ID   = 270326
ELEMENT_SET_NO = 999
REV_AT_EPOCH   = 27901
BSTAR          = .90223228E-3
MEAN_MOTION_DOT = .286E-5
MEAN_MOTION_DDOT = 0

CCSDS_OMM_VERS = 2.0
CREATION_DATE  = 
ORIGINATOR     = 

OBJECT_NAME    = UNKNOWN
OBJECT_ID      = 
CENTER_NAME    = EARTH
REF_FRAME      = TEME
TIME_SYSTEM    = UTC
MEAN_ELEMENT_THEORY = SGP/SGP4

EPOCH          = 2026-04-02T02:15:55.509408
MEAN_MOTION    = 12.95859700
ECCENTRICITY   = .00287681
INCLINATION    = 90.2969
RA_OF_ASC_NODE = 32.3009
ARG_OF_PERICENTER = 323.1292
MEAN_ANOMALY   = 36.7850

EPHEMERIS_TYPE = 0
CLASSIFICATION_TYPE = U
NORAD_CAT_ID   = 270327
ELEMENT_SET_NO = 999
REV_AT_EPOCH   = 25638
BSTAR          = .43826957E-4
MEAN_MOTION_DOT = .19E-6
MEAN_MOTION_DDOT = 0

CCSDS_OMM_VERS = 2.0
CREATION_DATE  = 
ORIGINATOR     = 

OBJECT_NAME    = UNKNOWN
OBJECT_ID      = 
CENTER_NAME    = EARTH
REF_FRAME      = TEME
TIME_SYSTEM    = UTC
MEAN_ELEMENT_THEORY = SGP/SGP4

EPOCH          = 2026-03-30T20:06:10.589184
MEAN_MOTION    = 12.95229348
ECCENTRICITY   = .01929627
INCLINATION    = 63.4583
RA_OF_ASC_NODE = 136.9013
ARG_OF_PERICENTER = 2.9914
MEAN_ANOMALY   = 357.2194

EPHEMERIS_TYPE = 0
CLASSIFICATION_TYPE = U
NORAD_CAT_ID   = 270328
ELEMENT_SET_NO = 999
REV_AT_EPOCH   = 27662
BSTAR          = .13938266E-2
MEAN_MOTION_DOT = .349E-5
MEAN_MOTION_DDOT = 0

CCSDS_OMM_VERS = 2.0
CREATION_DATE  = 
ORIGINATOR     = 

OBJECT_NAME    = UNKNOWN
OBJECT_ID      = 
CENTER_NAME    = EARTH
REF_FRAME      = TEME
TIME_SYSTEM    = UTC
MEAN_ELEMENT_THEORY = SGP/SGP4

EPOCH          = 2026-04-01T09:12:25.136064
MEAN_MOTION    = 14.37140087
ECCENTRICITY   = .00025608
INCLINATION    = 86.3960
RA_OF_ASC_NODE = 321.0595
ARG_OF_PERICENTER = 82.1940
MEAN_ANOMALY   = 277.9548

EPHEMERIS_TYPE = 0
CLASSIFICATION_TYPE = U
NORAD_CAT_ID   = 270329
ELEMENT_SET_NO = 999
REV_AT_EPOCH   = 27069
BSTAR          = .17649284E-3
MEAN_MOTION_DOT = .544E-5
MEAN_MOTION_DDOT = 0

CCSDS_OMM_VERS = 2.0
CREATION_DATE  = 
ORIGINATOR     = 

OBJECT_NAME    = UNKNOWN
OBJECT_ID      = 
CENTER_NAME    = EARTH
REF_FRAME      = TEME
TIME_SYSTEM    = UTC
MEAN_ELEMENT_THEORY = SGP/SGP4

EPOCH          = 2026-04-02T17:34:28.013088
MEAN_MOTION    = 13.42317193
ECCENTRICITY   = .00386619
INCLINATION    = 100.3123
RA_OF_ASC_NODE = 273.6374
ARG_OF_PERICENTER = 48.4927
MEAN_ANOMALY   = 311.9508

EPHEMERIS_TYPE = 0
CLASSIFICATION_TYPE = U
NORAD_CAT_ID   = 270330
ELEMENT_SET_NO = 999
REV_AT_EPOCH   = 26236
BSTAR          = .30285929E-2
MEAN_MOTION_DOT = .167E-4
MEAN_MOTION_DDOT = 0

CCSDS_OMM_VERS = 2.0
CREATION_DATE  = 
ORIGINATOR     = 

OBJECT_NAME    = UNKNOWN
OBJECT_ID      = 
CENTER_NAME    = EARTH
REF_FRAME      = TEME
TIME_SYSTEM    = UTC
MEAN_ELEMENT_THEORY = SGP/SGP4

EPOCH          = 2026-04-01T23:04:07.264416
MEAN_MOTION    = 14.57885701
ECCENTRICITY   = .00927109
INCLINATION    = 86.4373
RA_OF_ASC_NODE = 176.3396
ARG_OF_PERICENTER = 76.6437
MEAN_ANOMALY   = 284.5088

EPHEMERIS_TYPE = 0
CLASSIFICATION_TYPE = U
NORAD_CAT_ID   = 270332
ELEMENT_SET_NO = 999
REV_AT_EPOCH   = 2143
BSTAR          = .83356949E-2
MEAN_MOTION_DOT = .40732E-3
MEAN_MOTION_DDOT = 0

